start=new Date('2021-11-28T00:00:00.000Z').valueOf();
sats=[{"TIME_SYSTEM":"UTC","OBJECT_NAME":"STARLINK-2233","SITE":"AFETR","OBJECT_TYPE":"PAYLOAD","BSTAR":"0.00001412700000","ELEMENT_SET_NO":"999","ECCENTRICITY":"0.00019540","LAUNCH_DATE":"2021-05-15","GP_ID":"190623929","MEAN_MOTION_DDOT":"0.0000000000000","CLASSIFICATION_TYPE":"U","SEMIMAJOR_AXIS":"6925.365","MEAN_ANOMALY":"295.1858","MEAN_MOTION":"15.06394757","DECAY_DATE":null,"COUNTRY_CODE":"US","FILE":"3225675","NORAD_CAT_ID":"48579","RA_OF_ASC_NODE":"308.3859","RCS_SIZE":"LARGE","TLE_LINE1":"1 48579U 21041AC  21331.64875758 -.00000071  00000-0  14127-4 0  9999","MEAN_ELEMENT_THEORY":"SGP4","REV_AT_EPOCH":"2961","MEAN_MOTION_DOT":"-0.00000071","ARG_OF_PERICENTER":"64.9334","PERIOD":"95.592","EPOCH":"2021-11-27T15:34:12.654912","CENTER_NAME":"EARTH","PERIAPSIS":"545.876","REF_FRAME":"TEME","APOAPSIS":"548.583","EPHEMERIS_TYPE":"0","TLE_LINE2":"2 48579  53.0576 308.3859 0001954  64.9334 295.1858 15.06394757 29618","OBJECT_ID":"2021-041AC","INCLINATION":"53.0576"},{"COUNTRY_CODE":"US","DECAY_DATE":null,"MEAN_MOTION":"15.06412236","MEAN_ANOMALY":"144.4495","SEMIMAJOR_AXIS":"6925.311","CLASSIFICATION_TYPE":"U","NORAD_CAT_ID":"48580","FILE":"3225675","RA_OF_ASC_NODE":"282.1784","BSTAR":"-0.00046704000000","OBJECT_TYPE":"PAYLOAD","SITE":"AFETR","TIME_SYSTEM":"UTC","OBJECT_NAME":"STARLINK-2234","MEAN_MOTION_DDOT":"0.0000000000000","GP_ID":"190624324","LAUNCH_DATE":"2021-05-15","ECCENTRICITY":"0.00028700","ELEMENT_SET_NO":"999","TLE_LINE2":"2 48580  53.0552 282.1784 0002870  52.0604 144.4495 15.06412236  3580","EPHEMERIS_TYPE":"0","APOAPSIS":"549.164","REF_FRAME":"TEME","PERIAPSIS":"545.188","CENTER_NAME":"EARTH","INCLINATION":"53.0552","OBJECT_ID":"2021-041AD","MEAN_MOTION_DOT":"-0.00007235","REV_AT_EPOCH":"358","MEAN_ELEMENT_THEORY":"SGP4","TLE_LINE1":"1 48580U 21041AD  21331.91667824 -.00007235  00000-0 -46704-3 0  9999","RCS_SIZE":"LARGE","EPOCH":"2021-11-27T22:00:00.999936","ARG_OF_PERICENTER":"52.0604","PERIOD":"95.591"},{"MEAN_MOTION":"15.19867299","MEAN_ANOMALY":"181.5099","SEMIMAJOR_AXIS":"6884.378","CLASSIFICATION_TYPE":"U","COUNTRY_CODE":"US","DECAY_DATE":null,"RA_OF_ASC_NODE":"272.3131","FILE":"3225675","NORAD_CAT_ID":"48581","SITE":"AFETR","OBJECT_NAME":"STARLINK-2235","TIME_SYSTEM":"UTC","BSTAR":"-0.05316500000000","OBJECT_TYPE":"PAYLOAD","ECCENTRICITY":"0.00013860","ELEMENT_SET_NO":"999","MEAN_MOTION_DDOT":"0.0000000000000","LAUNCH_DATE":"2021-05-15","GP_ID":"190623817","REF_FRAME":"TEME","APOAPSIS":"507.197","PERIAPSIS":"505.289","CENTER_NAME":"EARTH","TLE_LINE2":"2 48581  53.0541 272.3131 0001386  86.0338 181.5099 15.19867299  3633","EPHEMERIS_TYPE":"0","OBJECT_ID":"2021-041AE","INCLINATION":"53.0541","MEAN_ELEMENT_THEORY":"SGP4","TLE_LINE1":"1 48581U 21041AE  21331.91667824 -.01057764  00000-0 -53165-1 0  9990","RCS_SIZE":"LARGE","MEAN_MOTION_DOT":"-0.01057764","REV_AT_EPOCH":"363","EPOCH":"2021-11-27T22:00:00.999936","PERIOD":"94.745","ARG_OF_PERICENTER":"86.0338"},{"MEAN_MOTION_DDOT":"0.0000000000000","LAUNCH_DATE":"2021-05-15","GP_ID":"190624688","ELEMENT_SET_NO":"999","ECCENTRICITY":"0.00018510","BSTAR":"-0.00091064000000","OBJECT_TYPE":"PAYLOAD","TIME_SYSTEM":"UTC","OBJECT_NAME":"STARLINK-2236","SITE":"AFETR","RA_OF_ASC_NODE":"272.1759","FILE":"3225675","NORAD_CAT_ID":"48582","DECAY_DATE":null,"COUNTRY_CODE":"US","SEMIMAJOR_AXIS":"6925.288","CLASSIFICATION_TYPE":"U","MEAN_MOTION":"15.06419641","MEAN_ANOMALY":"167.7188","EPOCH":"2021-11-27T22:00:00.999936","PERIOD":"95.591","ARG_OF_PERICENTER":"63.7665","REV_AT_EPOCH":"363","MEAN_MOTION_DOT":"-0.00013827","RCS_SIZE":"MEDIUM","MEAN_ELEMENT_THEORY":"SGP4","TLE_LINE1":"1 48582U 21041AF  21331.91667824 -.00013827  00000-0 -91064-3 0  9994","INCLINATION":"53.0534","OBJECT_ID":"2021-041AF","TLE_LINE2":"2 48582  53.0534 272.1759 0001851  63.7665 167.7188 15.06419641  3637","EPHEMERIS_TYPE":"0","PERIAPSIS":"545.871","CENTER_NAME":"EARTH","APOAPSIS":"548.435","REF_FRAME":"TEME"},{"FILE":"3225675","NORAD_CAT_ID":"48583","RA_OF_ASC_NODE":"318.1798","MEAN_ANOMALY":"303.7504","MEAN_MOTION":"15.06403894","SEMIMAJOR_AXIS":"6925.337","CLASSIFICATION_TYPE":"U","COUNTRY_CODE":"US","DECAY_DATE":null,"ECCENTRICITY":"0.00017760","ELEMENT_SET_NO":"999","GP_ID":"190624205","LAUNCH_DATE":"2021-05-15","MEAN_MOTION_DDOT":"0.0000000000000","SITE":"AFETR","TIME_SYSTEM":"UTC","OBJECT_NAME":"STARLINK-2237","OBJECT_TYPE":"PAYLOAD","BSTAR":"0.00015374000000","OBJECT_ID":"2021-041AG","INCLINATION":"53.0561","APOAPSIS":"548.432","REF_FRAME":"TEME","CENTER_NAME":"EARTH","PERIAPSIS":"545.972","EPHEMERIS_TYPE":"0","TLE_LINE2":"2 48583  53.0561 318.1798 0001776  56.3654 303.7504 15.06403894 29482","PERIOD":"95.592","ARG_OF_PERICENTER":"56.3654","EPOCH":"2021-11-27T16:41:52.789632","TLE_LINE1":"1 48583U 21041AG  21331.69574988  .00002009  00000-0  15374-3 0  9996","MEAN_ELEMENT_THEORY":"SGP4","RCS_SIZE":"LARGE","MEAN_MOTION_DOT":"0.00002009","REV_AT_EPOCH":"2948"},{"PERIOD":"95.593","ARG_OF_PERICENTER":"59.4143","EPOCH":"2021-11-27T16:04:44.239872","TLE_LINE1":"1 48584U 21041AH  21331.66995648  .00000254  00000-0  35943-4 0  9999","MEAN_ELEMENT_THEORY":"SGP4","RCS_SIZE":"LARGE","MEAN_MOTION_DOT":"0.00000254","REV_AT_EPOCH":"2947","OBJECT_ID":"2021-041AH","INCLINATION":"53.0569","REF_FRAME":"TEME","APOAPSIS":"548.444","CENTER_NAME":"EARTH","PERIAPSIS":"546.026","EPHEMERIS_TYPE":"0","TLE_LINE2":"2 48584  53.0569 318.2823 0001746  59.4143 300.7018 15.06392938 29477","ECCENTRICITY":"0.00017460","ELEMENT_SET_NO":"999","GP_ID":"190624050","LAUNCH_DATE":"2021-05-15","MEAN_MOTION_DDOT":"0.0000000000000","SITE":"AFETR","TIME_SYSTEM":"UTC","OBJECT_NAME":"STARLINK-2238","OBJECT_TYPE":"PAYLOAD","BSTAR":"0.00003594300000","NORAD_CAT_ID":"48584","FILE":"3225675","RA_OF_ASC_NODE":"318.2823","MEAN_ANOMALY":"300.7018","MEAN_MOTION":"15.06392938","CLASSIFICATION_TYPE":"U","SEMIMAJOR_AXIS":"6925.370","COUNTRY_CODE":"US","DECAY_DATE":null},{"INCLINATION":"53.0562","OBJECT_ID":"2021-041AJ","EPHEMERIS_TYPE":"0","TLE_LINE2":"2 48585  53.0562 318.2378 0001808  62.8410 297.2763 15.06404909 29479","REF_FRAME":"TEME","APOAPSIS":"548.451","CENTER_NAME":"EARTH","PERIAPSIS":"545.946","ARG_OF_PERICENTER":"62.8410","PERIOD":"95.592","EPOCH":"2021-11-27T16:20:38.348160","MEAN_MOTION_DOT":"-0.00000058","REV_AT_EPOCH":"2947","TLE_LINE1":"1 48585U 21041AJ  21331.68099940 -.00000058  00000-0  15024-4 0  9993","MEAN_ELEMENT_THEORY":"SGP4","RCS_SIZE":"LARGE","FILE":"3225675","RA_OF_ASC_NODE":"318.2378","NORAD_CAT_ID":"48585","COUNTRY_CODE":"US","DECAY_DATE":null,"MEAN_ANOMALY":"297.2763","MEAN_MOTION":"15.06404909","CLASSIFICATION_TYPE":"U","SEMIMAJOR_AXIS":"6925.334","GP_ID":"190624093","LAUNCH_DATE":"2021-05-15","MEAN_MOTION_DDOT":"0.0000000000000","ECCENTRICITY":"0.00018080","ELEMENT_SET_NO":"999","OBJECT_TYPE":"PAYLOAD","BSTAR":"0.00001502400000","SITE":"AFETR","OBJECT_NAME":"STARLINK-2240","TIME_SYSTEM":"UTC"},{"FILE":"3225675","RA_OF_ASC_NODE":"318.2688","NORAD_CAT_ID":"48586","DECAY_DATE":null,"COUNTRY_CODE":"US","SEMIMAJOR_AXIS":"6925.370","CLASSIFICATION_TYPE":"U","MEAN_ANOMALY":"301.5544","MEAN_MOTION":"15.06392887","LAUNCH_DATE":"2021-05-15","GP_ID":"190624454","MEAN_MOTION_DDOT":"0.0000000000000","ELEMENT_SET_NO":"999","ECCENTRICITY":"0.00018530","OBJECT_TYPE":"PAYLOAD","BSTAR":"0.00001412200000","TIME_SYSTEM":"UTC","OBJECT_NAME":"STARLINK-2241","SITE":"AFETR","INCLINATION":"53.0562","OBJECT_ID":"2021-041AK","EPHEMERIS_TYPE":"0","TLE_LINE2":"2 48586  53.0562 318.2688 0001853  58.5626 301.5544 15.06392887 29472","CENTER_NAME":"EARTH","PERIAPSIS":"545.952","APOAPSIS":"548.519","REF_FRAME":"TEME","PERIOD":"95.593","ARG_OF_PERICENTER":"58.5626","EPOCH":"2021-11-27T16:10:02.211744","REV_AT_EPOCH":"2947","MEAN_MOTION_DOT":"-0.00000071","RCS_SIZE":"LARGE","TLE_LINE1":"1 48586U 21041AK  21331.67363671 -.00000071  00000-0  14122-4 0  9991","MEAN_ELEMENT_THEORY":"SGP4"},{"EPOCH":"2021-11-27T16:19:17.670432","PERIOD":"95.592","ARG_OF_PERICENTER":"59.0492","MEAN_MOTION_DOT":"0.00000018","REV_AT_EPOCH":"2947","MEAN_ELEMENT_THEORY":"SGP4","TLE_LINE1":"1 48587U 21041AL  21331.68006563  .00000018  00000-0  20138-4 0  9991","RCS_SIZE":"LARGE","INCLINATION":"53.0575","OBJECT_ID":"2021-041AL","TLE_LINE2":"2 48587  53.0575 318.2350 0001693  59.0492 301.0664 15.06395741 29472","EPHEMERIS_TYPE":"0","APOAPSIS":"548.399","REF_FRAME":"TEME","PERIAPSIS":"546.054","CENTER_NAME":"EARTH","MEAN_MOTION_DDOT":"0.0000000000000","LAUNCH_DATE":"2021-05-15","GP_ID":"190623930","ECCENTRICITY":"0.00016930","ELEMENT_SET_NO":"999","BSTAR":"0.00002013800000","OBJECT_TYPE":"PAYLOAD","SITE":"AFETR","TIME_SYSTEM":"UTC","OBJECT_NAME":"STARLINK-2242","RA_OF_ASC_NODE":"318.2350","FILE":"3225675","NORAD_CAT_ID":"48587","COUNTRY_CODE":"US","DECAY_DATE":null,"MEAN_MOTION":"15.06395741","MEAN_ANOMALY":"301.0664","CLASSIFICATION_TYPE":"U","SEMIMAJOR_AXIS":"6925.362"},{"SITE":"AFETR","TIME_SYSTEM":"UTC","OBJECT_NAME":"STARLINK-2244","BSTAR":"0.00005028200000","OBJECT_TYPE":"PAYLOAD","ECCENTRICITY":"0.00020550","ELEMENT_SET_NO":"999","MEAN_MOTION_DDOT":"0.0000000000000","LAUNCH_DATE":"2021-05-15","GP_ID":"190624325","MEAN_MOTION":"15.06408547","MEAN_ANOMALY":"299.3545","SEMIMAJOR_AXIS":"6925.322","CLASSIFICATION_TYPE":"U","COUNTRY_CODE":"US","DECAY_DATE":null,"RA_OF_ASC_NODE":"308.3605","FILE":"3225675","NORAD_CAT_ID":"48588","MEAN_ELEMENT_THEORY":"SGP4","TLE_LINE1":"1 48588U 21041AM  21331.65612809  .00000467  00000-0  50282-4 0  9996","RCS_SIZE":"LARGE","MEAN_MOTION_DOT":"0.00000467","REV_AT_EPOCH":"2961","EPOCH":"2021-11-27T15:44:49.466976","PERIOD":"95.592","ARG_OF_PERICENTER":"60.7649","REF_FRAME":"TEME","APOAPSIS":"548.611","PERIAPSIS":"545.764","CENTER_NAME":"EARTH","TLE_LINE2":"2 48588  53.0548 308.3605 0002055  60.7649 299.3545 15.06408547 29614","EPHEMERIS_TYPE":"0","OBJECT_ID":"2021-041AM","INCLINATION":"53.0548"}];
